ONEWEB-0531             
1 54146U 22138AK  25197.93294646 -.00000087  00000+0 -24536-3 0  9992
2 54146  87.9279 341.2233 0001158  75.6558 284.4703 13.20769513135052
ONEWEB-0535             
1 54147U 22138AL  25198.04489897  .00000031  00000+0  44387-4 0  9994
2 54147  87.9214  11.5621 0001458  91.6181 268.5119 13.19725171133505
ONEWEB-0536             
1 54148U 22138AM  25197.92031051 -.00000061  00000+0 -18197-3 0  9990
2 54148  87.9279 341.2713 0001236  64.1251 296.0010 13.20769732135049
ONEWEB-0527             
1 54642U 22166A   25197.83632439 -.00000040  00000+0 -12793-3 0  9990
2 54642  87.9275 310.8983 0001975  97.1926 262.9433 13.21825577127234
ONEWEB-0528             
1 54643U 22166B   25198.22111794  .00000017  00000+0  10091-4 0  9993
2 54643  87.9283 310.8221 0002063  97.1417 262.9952 13.21826174127749
ONEWEB-0539             
1 54644U 22166C   25197.87889967  .00000049  00000+0  87290-4 0  9998
2 54644  87.9266 310.8643 0002049 105.2930 254.8431 13.21824833127241
ONEWEB-0540             
1 54645U 22166D   25197.80965214  .00000017  00000+0  93126-5 0  9993
2 54645  87.9272 310.9108 0002037 105.5438 254.5921 13.21825216127224
ONEWEB-0542             
1 54646U 22166E   25197.81266519  .00000028  00000+0  35817-4 0  9991
2 54646  87.9266 310.8752 0001911 110.9944 249.1395 13.21824920127231
